{"generatedAt":"2026-05-05T08:19:47.084492Z","satellites":[{"name":"STARLINK-37544","tle1":"1 68909U 26097Q   26124.75002315 -.02124074  13259-2 -44050-2 0  9993","tle2":"2 68909  97.2865 319.6786 0001469  97.2825 142.8883 15.99315069  1940"}]}